HISPASAT 30W-5          
1 37264U 10070A   20334.43337660 -.00000196  00000-0  00000+0 0  9990
2 37264   0.0697 109.3091 0003219 111.4759 334.0449  1.00271231 36353
KOREASAT 6              
1 37265U 10070B   20334.54771576 -.00000342  00000-0  00000-0 0  9995
2 37265   0.0598  96.8003 0001476 168.0681 117.2259  1.00271264 36459
BEIDOU 8                
1 37384U 11013A   20334.24323095 -.00000214  00000-0  00000+0 0  9998
2 37384  59.5015  59.9277 0052932 204.0586   9.3342  1.00259481 35354
INTELSAT NEW DAWN       
1 37392U 11016A   20334.47827351  .00000176  00000-0  00000+0 0  9995
2 37392   0.0134 256.7183 0001622 346.3995  30.7124  1.00272699 35209
YAHSAT 1A               
1 37393U 11016B   20334.38382745  .00000121  00000-0  00000-0 0  9990
2 37393   0.0197 307.4594 0003176 297.7559  14.1874  1.00268589 22094
SBIRS GEO-1 (USA 230)   
1 37481U 11019A   20334.57549406  .00000010  00000-0  00000-0 0  9998
2 37481   1.9157 351.0942 0002082 249.3404 101.8761  1.00272114 35088
TELSTAR 14R             
1 37602U 11021A   20334.49862918 -.00000260  00000-0  00000-0 0  9991
2 37602   0.0204 325.8218 0001406 342.3895 237.1491  1.00270932 35515
GSAT-8                  
1 37605U 11022A   20334.58104824  .00000105  00000-0  00000-0 0  9997
2 37605   0.0150 137.4591 0008610 123.7455  72.0001  1.00271108 32905
ST-2                    
1 37606U 11022B   20334.56438312 -.00000192  00000-0  00000-0 0  9995
2 37606   0.0285  80.5332 0002071 177.5825 101.9962  1.00271337 34969
CHINASAT 10 (ZX 10)     
1 37677U 11026A   20334.59285750 -.00000332  00000-0  00000-0 0  9992
2 37677   0.0230 243.6953 0004775 312.1939 197.0162  1.00272320 34673
TIANLIAN 1-02           
1 37737U 11032A   20334.57083961  .00000002  00000-0  00000-0 0  9997
2 37737   2.8925  74.3541 0016311 116.9726 254.0196  1.00271524 34414
GSAT-12                 
1 37746U 11034A   20334.56438312 -.00000145  00000-0  00000-0 0  9991
2 37746   0.0223 284.2327 0006612 167.6222 263.2663  1.00271574 23184
SES-3                   
1 37748U 11035A   20334.52469292 -.00000082  00000-0  00000-0 0  9991
2 37748   0.0188 358.3440 0002922 254.0257 262.4126  1.00272213 34306
KAZSAT-2                
1 37749U 11035B   20334.56438312 -.00000178  00000-0  00000-0 0  9991
2 37749   0.0146 268.2412 0001460  35.9739  54.3732  1.00270581 33076
BEIDOU 9                
1 37763U 11038A   20333.85123104  .00000023  00000-0  00000+0 0  9998
2 37763  54.4462 183.8642 0072509 223.3989  61.8369  1.00260196 34324
ASTRA 1N                
1 37775U 11041A   20334.51502958  .00000140  00000-0  00000-0 0  9998
2 37775   0.0621  55.0934 0001712 267.5593 310.8575  1.00274068 24210
BSAT-3C (JCSAT-110R)    
1 37776U 11041B   20334.59285750 -.00000331  00000-0  00000-0 0  9998
2 37776   0.0500 118.6372 0000217  23.1497 250.5584  1.00273391 30177
PAKSAT-1R               
1 37779U 11042A   20334.47775267  .00000174  00000-0  00000-0 0  9990
2 37779   0.0090 228.0740 0002122  75.7212 335.0586  1.00274090 34165
CHINASAT 1A (ZX 1A)     
1 37804U 11047A   20334.60880834 -.00000318  00000-0  00000-0 0  9997
2 37804   0.0139  60.4196 0002642 230.2373 127.3205  1.00273373 33762
COSMOS 2473             
1 37806U 11048A   20332.64164648 -.00000111  00000-0  00000+0 0  9990
2 37806   0.4398  97.9156 0002604 104.1970  80.0071  1.00263473 33739
SES-2                   
1 37809U 11049A   20334.49383119 -.00000176  00000-0  00000-0 0  9997
2 37809   0.0102 333.0883 0003315 284.1886 262.3602  1.00271831 33650
ARABSAT-5C              
1 37810U 11049B   20334.51520404  .00000143  00000-0  00000-0 0  9995
2 37810   0.0608   0.7915 0004303 216.4635  57.0960  1.00270476 33745
EUTELSAT 7 WEST A       
1 37816U 11051A   20334.39702373 -.00000040  00000-0  00000+0 0  9993
2 37816   0.0986  58.0139 0007086 156.0309 350.3395  1.00272589 33650
QUETZSAT 1              
1 37826U 11054A   20334.49583763 -.00000221  00000-0  00000-0 0  9990
2 37826   0.0183  13.5827 0002900 234.6714 282.1104  1.00272629 29585
INTELSAT 18 (IS-18)     
1 37834U 11056A   20334.55667010  .00000072  00000-0  00000-0 0  9999
2 37834   0.0246 308.3565 0001904 289.2585 211.6649  1.00269367 33607
EUTELSAT 16A            
1 37836U 11057A   20334.51433168  .00000124  00000-0  00000-0 0  9991
2 37836   0.0708  23.0099 0004757 228.6703  18.3476  1.00272915 25663
VIASAT-1                
1 37843U 11059A   20334.59762804 -.00000003  00000-0  00000-0 0  9998
2 37843   0.0180 326.1638 0002723 279.2988 283.5405  1.00272050 27018
ASIASAT 7               
1 37933U 11069A   20334.59841147 -.00000314  00000-0  00000-0 0  9992
2 37933   0.0473 123.0183 0001574  94.8090 172.0673  1.00270940 24540
BEIDOU 10               
1 37948U 11073A   20334.36160494 -.00000159  00000-0  00000-0 0  9994
2 37948  51.3044 295.9814 0070458 217.2858 139.5658  1.00258778 33084
LUCH 5A                 
1 37951U 11074B   20334.62320543 -.00000026  00000-0  00000-0 0  9994
2 37951   3.6405 110.2500 0001427 118.0780 231.9143  1.00271035 32875
NIGCOMSAT 1R            
1 38014U 11077A   20334.51965308  .00000165  00000-0  00000-0 0  9993
2 38014   0.0224 221.8266 0000470  34.4691  42.1448  1.00273243 32641
FENGYUN 2F              
1 38049U 12002A   20334.60531890 -.00000338  00000-0  00000-0 0  9998
2 38049   2.4432  83.0577 0002956  12.0948 303.8647  1.00281008 32575
WGS F4 (USA 233)        
1 38070U 12003A   20334.38522228 -.00000195  00000-0  00000-0 0  9994
2 38070   0.0227 294.5097 0000807 272.3820  88.9338  1.00268263 23839
SES-4                   
1 38087U 12007A   20334.36323878 -.00000148  00000-0  00000-0 0  9992
2 38087   0.0166 337.3931 0002535 279.3419 280.7553  1.00272014 31933
BEIDOU 11               
1 38091U 12008A   20334.16394895  .00000076  00000-0  00000-0 0  9992
2 38091   1.8267  70.4942 0003280 221.3451 254.4041  1.00270835 32162
MUOS-1                  
1 38093U 12009A   20334.52773535 -.00000109  00000-0  00000+0 0  9994
2 38093   2.5464  13.5972 0051956 354.4576 150.8308  1.00271096 32144
INTELSAT 22 (IS-22)     
1 38098U 12011A   20334.56994007 -.00000039  00000-0  00000-0 0  9998
2 38098   0.0111 342.7349 0003036 255.9665 107.5046  1.00272131 31504
APSTAR 7                
1 38107U 12013A   20334.56994007 -.00000082  00000-0  00000-0 0  9999
2 38107   0.0474 115.0144 0003380 137.5296  98.0640  1.00271911 31495
YAHSAT 1B               
1 38245U 12016A   20334.52069991  .00000147  00000-0  00000-0 0  9997
2 38245   0.0222 303.0387 0002238 305.1048  55.7684  1.00267645 25283
AEHF-2 (USA 235)        
1 38254U 12019A   20334.46653545 -.00000256  00000-0  00000+0 0  9998
2 38254   2.2705  51.9354 0002581 129.6843 347.5133  1.00266435 31362
JCSAT-13                
1 38331U 12023A   20334.54719497 -.00000337  00000-0  00000-0 0  9998
2 38331   0.0131 333.6606 0002296 276.3504 139.8650  1.00268194 31218
VINASAT-2               
1 38332U 12023B   20334.53744924 -.00000309  00000-0  00000-0 0  9990
2 38332   0.0106 334.5595 0002223 268.5853 151.0830  1.00272478 26342
NIMIQ 6                 
1 38342U 12026A   20334.49295883 -.00000153  00000-0  00000-0 0  9991
2 38342   0.0115   5.4808 0002578 238.8470 270.8884  1.00270998 30116
CHINASAT 2A (ZX 2A)     
1 38352U 12028A   20334.59841147 -.00000273  00000-0  00000-0 0  9998
2 38352   0.0659  87.3221 0004249 236.4057  58.9314  1.00272477 31062
INTELSAT 19 (IS-19)     
1 38356U 12030A   20334.59550198 -.00000036  00000-0  00000-0 0  9995
2 38356   0.0182 293.4924 0002920 321.8178 194.0260  1.00271702 30155
ECHOSTAR 17             
1 38551U 12035A   20334.52267617 -.00000055  00000-0  00000+0 0  9991
2 38551   0.0264 294.5261 0002050 306.0294 269.3617  1.00270372 30814
METEOSAT-10 (MSG-3)     
1 38552U 12035B   20334.32896670  .00000078  00000-0  00000-0 0  9992
2 38552   1.2705 351.8936 0001557 217.4675 346.9342  1.00270129 30540
SES-5                   
1 38652U 12036A   20334.45188252  .00000054  00000-0  00000+0 0  9991
2 38652   0.0495  97.1408 0002187 146.5442 352.7822  1.00271584 30759
TIANLIAN 1-03           
1 38730U 12040A   20334.58699933  .00000146  00000-0  00000-0 0  9993
2 38730   0.6182 100.0690 0004102 241.2777 319.3637  1.00276358 30673
INTELSAT 20 (IS-20)     
1 38740U 12043A   20334.38129666 -.00000004  00000-0  00000+0 0  9999
2 38740   0.0062 128.7673 0002542  57.6791  88.0538  1.00270293 30519
HYLAS 2                 
1 38741U 12043B   20334.47827351  .00000174  00000-0  00000+0 0  9993
2 38741   0.0137 300.1551 0001913 300.4595  31.4209  1.00273110 30536
INTELSAT 21 (IS-21)     
1 38749U 12045A   20334.49950154 -.00000265  00000-0  00000-0 0  9996
2 38749   0.0168 318.1194 0002173 282.7395 309.8180  1.00272952 30239
ASTRA 2F                
1 38778U 12051A   20334.51677429  .00000170  00000-0  00000-0 0  9993
2 38778   0.0554 224.1745 0004521  14.5606  44.3832  1.00274254 20863
GSAT-10                 
1 38779U 12051B   20334.56438312 -.00000145  00000-0  00000-0 0  9998
2 38779   0.0573 108.3027 0003212 146.4058 100.4291  1.00271258 29800
INTELSAT 23 (IS-23)     
1 38867U 12057A   20334.42884031 -.00000265  00000-0  00000+0 0  9992
2 38867   0.0339 120.4532 0002032 121.9439 287.7751  1.00274302 29795
BEIDOU 16               
1 38953U 12059A   20334.59973580 -.00000156  00000-0  00000-0 0  9996
2 38953   1.4933  84.6431 0007876 251.8173  32.3816  1.00274892 29738
LUCH 5B                 
1 38977U 12061A   20334.27286179 -.00000116  00000-0  00000-0 0  9997
2 38977   6.0917  66.5613 0002234 167.4565 276.5355  1.00272368 29868
YAMAL 300K              
1 38978U 12061B   20333.63729874  .00000090  00000-0  00000+0 0  9990
2 38978   0.0080  19.9439 0001016 255.4265 205.0472  1.00274517 29555
STAR ONE C3             
1 38991U 12062A   20334.49618657 -.00000229  00000-0  00000-0 0  9993
2 38991   0.0548 109.1852 0002250 139.7314 283.5795  1.00270094 29454
